[{"OBJECT_NAME":"STARLINK-35212","OBJECT_ID":"2025-198E","EPOCH":"2026-03-09T22:03:13.621824","MEAN_MOTION":15.30199893,"ECCENTRICITY":0.00010391,"INCLINATION":53.156,"RA_OF_ASC_NODE":270.0425,"ARG_OF_PERICENTER":108.5574,"MEAN_ANOMALY":251.554,"EPHEMERIS_TYPE":0,"CLASSIFICATION_TYPE":"U","NORAD_CAT_ID":65496,"ELEMENT_SET_NO":999,"REV_AT_EPOCH":2865,"BSTAR":0.00078180196,"MEAN_MOTION_DOT":0.00022867,"MEAN_MOTION_DDOT":0},{"OBJECT_NAME":"FENGYUN 1C DEB","OBJECT_ID":"1999-025AQG","EPOCH":"2026-03-09T10:43:06.043872","MEAN_MOTION":15.25746961,"ECCENTRICITY":0.00178142,"INCLINATION":98.9311,"RA_OF_ASC_NODE":250.2123,"ARG_OF_PERICENTER":328.3876,"MEAN_ANOMALY":31.6286,"EPHEMERIS_TYPE":0,"CLASSIFICATION_TYPE":"U","NORAD_CAT_ID":30674,"ELEMENT_SET_NO":999,"REV_AT_EPOCH":98658,"BSTAR":0.015201752,"MEAN_MOTION_DOT":0.00411052,"MEAN_MOTION_DDOT":0}]
